EUTELSAT QUANTUM        
1 49056U 21069B   25327.25322499  .00000147  00000+0  00000+0 0  9997
2 49056   0.0380  58.2761 0002973 197.7806 305.2988  1.00272212 15867
EUTELSAT KONNECT VHTS   
1 53765U 22110A   25327.17266977  .00000038  00000+0  00000+0 0  9995
2 53765   0.0690 107.8180 0002549 106.0006 273.4808  1.00269348  4763
EUTELSAT HOTBIRD 13F    
1 54048U 22134A   25327.30234258  .00000108  00000+0  00000+0 0  9996
2 54048   0.0540 288.0261 0001895  79.0999 177.2747  1.00271815 11311
EUTELSAT HOTBIRD 13G    
1 54225U 22146A   25327.30234258  .00000108  00000+0  00000+0 0  9996
2 54225   0.0485 241.5875 0002185 292.1424  10.6709  1.00271620  5400
EUTELSAT 10B            
1 54259U 22157A   25327.30190925  .00000089  00000+0  00000+0 0  9995
2 54259   0.0665 105.1265 0001338  35.2334  40.8887  1.00269644 10962
EUTELSAT 36D            
1 59346U 24059A   25327.23569551  .00000000  00000+0  00000+0 0  9990
2 59346   0.0171 324.5607 0000305  45.5062 173.0987  1.00271202  6089
